#dP2020  7 25  0  0  0.00000000      96 __u+U ITR00 FIT  IAC
## 2115 518400.00000000   900.00000000 59055 0.0000000000000
+  114   C01C03C04C05C06C07C08C09C10C11C12C13C14C16C19C20C21
+        C22C23C24C25C26C27C28C29C30C32C33C34C35C36C37C45E01
+        E02E03E04E05E07E08E09E11E12E13E14E15E18E19E21E24E25
+        E26E27E30E31E33E36G01G02G03G04G05G06G07G08G09G10G11
+        G12G13G14G15G16G17G18G19G20G21G22G23G24G25G26G27G28
+        G29G30G31G32J01J02J03R01R02R03R04R05R07R08R09R11R12
+        R13R14R15R16R17R18R19R20R21R23R24R26  0  0  0  0  0
++        14 13 13 13  8  8  8  8  8  8  8  8  8  8  7  7  8
++         8  8  8  8  8  8  8  8  8  8  8  8  8  8  8  9  5
++         5  5  5  5  4  4  4  4  5  4  5  4  5  4  4  5  5
++         5  4  4  5  5  4  3  3  3  3  3  3  3  3  3  3  3
++         4  3  4  3  4  4  3  4  3  3  3  4  3  3  3  3  3
++         3  3  4  3  8  8  8  6  6  6  6  6  5  5  5  5  6
++         6  6  5  6  5  5  6  6  5  6  5  8  0  0  0  0  0
%c M  cc GPS ccc cccc cccc cccc cccc ccccc ccccc ccccc ccccc
%c cc cc ccc ccc cccc cccc cccc cccc ccccc ccccc ccccc ccccc
%f  0.0000000  0.000000000  0.00000000000  0.000000000000000
%f  0.0000000  0.000000000  0.00000000000  0.000000000000000
%i    0    0    0    0      0      0      0      0         0
%i    0    0    0    0      0      0      0      0         0
/* INFORMATION & ANALYSIS CENTER (IAC)            RAPID DATA
/* S/V CLOCKS ARE ALIGNED TO GNSS TIME                      
/* G:C1WC2W R:C1PC2P E:C1XC5X C:C2IC6I J:C1CC2S             
/* PCV:IGS14_2113 OL/AL:FES2004  NONE     YN ORB:CoN CLK:CoN
*  2020 07 25 13 45  0.00000000
PC01 -34390.889639  24393.445680    -53.174828   -293.717013
PC03 -14801.594420  39516.639301   -301.055229    818.818290
PC04 -39648.421902  14385.354872   -645.074086    -81.288772
PC05  21911.460166  36029.964850    739.326411   -694.698115
PC06  -8577.177321  23833.757498  34162.859419    793.597660
PC07 -23340.919405  30791.392621 -17237.585935    132.007962
PC08  -9956.795426  37773.921983 -15295.352836   -399.299584
PC09   5407.763251  29809.672669  29744.661600    699.841392
PC10 -10946.463242  31389.411277 -25972.911888   -227.809489
PC11 -15696.424995 -22314.423244   6057.595597   -513.280225
PC12    -81.959279 -19231.341257  20259.441139    444.202144
PC13  -1268.849843  41949.849069  -1704.660719    561.404686
PC14 -10285.878067 -13322.525670 -22240.631923    720.161220
PC16  -5953.893836  24339.392887  34021.151704   -595.807547
PC19  19331.224326   8075.918267  18449.310173    486.337419
PC20    602.674732  16175.556645  22751.617657   -837.320892
PC21  19225.040083 -14898.038581 -13640.158989   -661.504181
PC22  27263.078720  -4865.023693   3284.873112   -769.117797
PC23 -17299.154802   5691.297578  21159.146174   -844.105210
PC24   1712.471822 -26697.116450   7974.693911   -757.068226
PC25 -11699.380238 -14252.713931  20951.139357   -698.298969
PC26  12416.045208 -23461.240530  -8660.940973    767.766655
PC27  -9110.417549  13286.451905 -22807.573586    370.350239
PC28 -20954.029617  -3937.733828 -18011.536931   -191.295679
PC29  21175.803096  17970.180195   2705.264418    260.796820
PC30   8545.226768  22293.847599 -14467.336836    351.560353
PC32 -19118.771887  15073.846640  13666.794648   -877.796425
PC33 -19364.201712  -8006.607616 -18434.703385   -796.393543
PC34  -8902.322373 -22393.296083  14045.774187   -893.454417
PC35  21193.780418   3393.216396  17844.201169   -733.550518
PC36  11211.073669  14750.982743 -20838.094447   -879.074383
PC37 -13281.648009  22714.723514   9308.521855   -878.817547
PC45  17162.827859  -5802.826175 -21214.740525    188.416311
PE01  11300.144484 -24780.875150  11591.629915   -905.659720
PE02 -11227.992596  24774.508353 -11666.008706    149.758007
PE03  -4092.861241  16641.823530  24139.058544   -324.436213
PE04 -17417.900923 -16116.089376 -17687.882551   -572.961628
PE05 -23441.313738   7408.633131  16497.936845   -360.277346
PE07  28950.559841   6087.860464    729.423940   -413.698884
PE08  17727.104619  15843.688170  17627.838781   6144.608047
PE09 -29027.712273  -5819.110788   -601.395022   5985.285981
PE11 -18283.366321 -10242.437803 -20910.927607   4339.251457
PE12 -12844.798113 -26190.763467  -4983.645989   5688.927702
PE13  18261.731593  10470.007649  20809.271742    402.562809
PE14  22483.763162   3913.695569   9088.300971  -1096.666187
PE15  13040.892158  26061.982313   5185.995537    858.714946
PE18 -24304.634874   5231.556092 -20255.881659  -1200.326322
PE19   6475.438431 -15934.451279 -24081.451031     36.522616
PE21  22054.374019 -18516.439463  -6831.220729   -612.068832
PE24 -20073.915481    803.635283  21727.650303   5332.405652
PE25 -22102.218134  18419.677849   6980.454118   -514.141805
PE26  12728.003317 -11757.508847  23997.092212   2919.494742
PE27  20188.635201  -1272.420165 -21600.770806    169.968182
PE30   6035.704640  17018.122172 -23456.739028   3719.165611
PE31  -6488.254455 -16629.558902  23621.939965   -473.364037
PE33   -154.118320 -26344.913488  13490.549065   -464.516531
PE36 -12760.288554  11272.429440 -24214.702442    529.505973
PG01  13792.891892  -7029.560138  21297.184005     28.774700
PG02 -13527.374721 -16023.542227 -15687.273593   -492.497531
PG03  23220.086818 -11675.417968   5130.378476   -250.382764
PG04  19847.309522  -3408.310611 -17323.763899   -116.706891
PG05 -17419.659479  -4559.336220 -19732.735678    -17.401052
PG06  -6403.319623 -24894.211260  -6548.586119   -307.630554
PG07   6407.105730 -22799.615610 -11189.796821   -335.271489
PG08  24855.579979   5064.525353   8318.665541    -42.176463
PG09   9344.132503 -12549.357631 -21514.404641   -259.536597
PG10  -3514.079321  18310.928105  18908.277788   -409.458304
PG11  18175.168266   2036.897265  18668.338896   -211.287355
PG12 -23911.940420   9905.559865   5359.332090     89.183375
PG13 -22965.032269 -13321.250577   1776.217808     29.847403
PG14  15299.451403  18489.889699  11932.424923      4.023926
PG15 -25245.863509  -2332.698878   8209.054117   -215.143235
PG16  19082.934836   3571.021655 -18542.693735   -187.189148
PG17  -7641.170043 -18092.591443  18325.167637    301.201004
PG18  -6515.332203  23159.104172 -11231.250109    254.763244
PG19 -14714.210682 -18379.021876  12043.068671   -127.327000
PG20 -12873.370680  21076.415437   9379.790072    527.211551
PG21   8498.673774  24623.271514   6746.106373     27.887231
PG22  22508.289851  -6472.187468  12593.921606   -769.485774
PG23 -12681.942533  19808.250563  12308.216306     16.572825
PG24 -15045.396452   4775.518150  21133.065350    -16.158445
PG25 -19676.091732  17155.231764  -4313.993046     27.345451
PG26   8062.255946  13344.152833 -21526.376114    249.631329
PG27  23387.282429  12794.350257  -2287.768295   -354.702938
PG28   3450.047880 -17583.280162  20235.907894    696.162900
PG29 -13751.261125   8365.165635 -21181.629662   -158.108639
PG30   -282.376958 -26403.998692  -1305.857713   -269.112813
PG31   7194.571420  23907.241602  -8399.921327    -57.895383
PG32   9486.229249  17907.580847  17333.978393    322.611798
PJ01 -30590.482528  25398.523721  19204.663876   -196.675231
PJ02 -33122.433305  24982.856872  12526.312358     -1.634179
PJ03 -22636.866459  19197.795064 -25348.710706     -0.191842
PR01 -25141.697963   3507.355028   2596.142092     65.058106
PR02 -11613.752193  10344.629797  20241.775328    437.903018
PR03   7644.241742  10059.301917  22210.117027     19.182598
PR04  22350.986062   3919.757575  11680.528343     57.538066
PR05  24555.927398  -4248.031940  -5479.330393     54.692943
PR07  -8201.012427  -9914.041698 -21980.255592    -38.743785
PR08 -22372.726839  -3944.837609 -11531.264443    -53.684249
PR09   8862.420044 -23479.375805   4364.228896    145.325732
PR11 -10507.871784  -3855.034517  22942.200298    -31.747630
PR12 -14818.061280  12859.517922  16324.075264    150.014149
PR13 -10860.504750  23085.786839    -24.184769    -41.636142
PR14   -667.802001  19494.487587 -16432.059266     53.729715
PR15   9861.752239   4766.814331 -23010.910913    106.948899
PR16  14703.054600 -13773.073073 -15737.035128     -4.826869
PR17  11010.826261  21971.874404  -6749.460621    344.152395
PR18  16526.883388  16564.512623  10222.483415     43.513259
PR19  13294.881102   3073.708793  21542.514412   -103.908338
PR20   1538.174632 -14851.204496  20670.709258   -417.634692
PR21 -11541.217129 -22022.161406   5766.848153   -140.514265
PR23  -9814.241332   4013.037567 -23214.465809    320.933312
PR24  -1228.184413  15619.657763 -20113.715601      7.485673
PR26   4824.071524 -11007.885555  22509.759426   -364.387178
EOF
